COMMENT,ORIGINATOR,NORAD_CAT_ID,OBJECT_NAME,OBJECT_TYPE,CLASSIFICATION_TYPE,INTLDES,EPOCH,EPOCH_MICROSECONDS,MEAN_MOTION,ECCENTRICITY,INCLINATION,RA_OF_ASC_NODE,ARG_OF_PERICENTER,MEAN_ANOMALY,EPHEMERIS_TYPE,ELEMENT_SET_NO,REV_AT_EPOCH,BSTAR,MEAN_MOTION_DOT,MEAN_MOTION_DDOT,FILE,TLE_LINE0,TLE_LINE1,TLE_LINE2,OBJECT_ID,OBJECT_NUMBER,SEMIMAJOR_AXIS,PERIOD,APOGEE,PERIGEE,DECAYED
"GENERATED VIA SPACETRACK.ORG API","18 SPCS","48894","SPACEBEE-107","PAYLOAD","U","21059R","2024-01-28 21:27:13","788576","15.74567725","0.0005294","97.6041","182.7352","287.8568","72.2118","0","999","14431","0.0019245","0.00289171","0","4173840","0 SPACEBEE-107","1 48894U 21059R   24028.89390959  .00289171  00000-0  19245-2 0  9999","2 48894  97.6041 182.7352 0005294 287.8568  72.2118 15.74567725144317","2021-059R","48894","6723.999","91.454","349.423","342.304","1"
"GENERATED VIA SPACETRACK.ORG API","18 SPCS","48894","SPACEBEE-107","PAYLOAD","U","21059R","2024-01-28 22:58:44","582880","15.74607243","0.0005322","97.6043","182.8048","287.961","72.1073","0","999","14432","0.0019563","0.00294642","0","4173963","0 SPACEBEE-107","1 48894U 21059R   24028.95746045  .00294642  00000-0  19563-2 0  9999","2 48894  97.6043 182.8048 0005322 287.9610  72.1073 15.74607243144323","2021-059R","48894","6723.886","91.451","349.330","342.173","1"
"GENERATED VIA SPACETRACK.ORG API","18 SPCS","48894","SPACEBEE-107","PAYLOAD","U","21059R","2024-01-29 09:39:17","307360","15.74828571","0.0005257","97.6045","183.292","286.5202","73.5484","0","999","14439","0.0018322","0.00278034","0","4174208","0 SPACEBEE-107","1 48894U 21059R   24029.40228365  .00278034  00000-0  18322-2 0  9999","2 48894  97.6045 183.2920 0005257 286.5202  73.5484 15.74828571144395","2021-059R","48894","6723.256","91.439","348.655","341.587","1"
"GENERATED VIA SPACETRACK.ORG API","18 SPCS","48894","SPACEBEE-107","PAYLOAD","U","21059R","2024-01-29 09:39:17","307360","15.74828571","0.0005257","97.6045","183.292","286.5202","73.5484","0","999","14439","0.0018322","0.00278034","0","4174567","0 SPACEBEE-107","1 48894U 21059R   24029.40228365  .00278034  00000-0  18322-2 0  9999","2 48894  97.6045 183.2920 0005257 286.5202  73.5484 15.74828571144395","2021-059R","48894","6723.256","91.439","348.655","341.587","1"
"GENERATED VIA SPACETRACK.ORG API","18 SPCS","48894","SPACEBEE-107","PAYLOAD","U","21059R","2024-01-30 10:03:00","218592","15.75432856","0.0005286","97.605","184.4051","286.9638","73.1046","0","999","14455","0.0019136","0.00298794","0","4174959","0 SPACEBEE-107","1 48894U 21059R   24030.41875253  .00298794  00000-0  19136-2 0  9995","2 48894  97.6050 184.4051 0005286 286.9638  73.1046 15.75432856144554","2021-059R","48894","6721.537","91.403","346.955","339.849","1"
"GENERATED VIA SPACETRACK.ORG API","18 SPCS","48894","SPACEBEE-107","PAYLOAD","U","21059R","2024-01-30 10:03:00","218592","15.75432856","0.0005286","97.605","184.4051","286.9638","73.1046","0","999","14455","0.0019136","0.00298794","0","4175201","0 SPACEBEE-107","1 48894U 21059R   24030.41875253  .00298794  00000-0  19136-2 0  9995","2 48894  97.6050 184.4051 0005286 286.9638  73.1046 15.75432856144554","2021-059R","48894","6721.537","91.403","346.955","339.849","1"
"GENERATED VIA SPACETRACK.ORG API","18 SPCS","48894","SPACEBEE-107","PAYLOAD","U","21059R","2024-01-30 22:14:38","467968","15.75748807","0.00054","97.6048","184.9623","287.0929","72.9744","0","999","14463","0.0018414","0.0029123","0","4175464","0 SPACEBEE-107","1 48894U 21059R   24030.92683412  .00291230  00000-0  18414-2 0  9991","2 48894  97.6048 184.9623 0005400 287.0929  72.9744 15.75748807144631","2021-059R","48894","6720.638","91.385","346.132","338.874","1"
"GENERATED VIA SPACETRACK.ORG API","18 SPCS","48894","SPACEBEE-107","PAYLOAD","U","21059R","2024-01-31 08:54:42","487776","15.76023128","0.0005541","97.6045","185.4506","291.5433","68.5241","0","999","14470","0.0019166","0.00307354","0","4175837","0 SPACEBEE-107","1 48894U 21059R   24031.37132509  .00307354  00000-0  19166-2 0  9997","2 48894  97.6045 185.4506 0005541 291.5433  68.5241 15.76023128144704","2021-059R","48894","6719.858","91.369","345.447","338.000","1"
"GENERATED VIA SPACETRACK.ORG API","18 SPCS","48894","SPACEBEE-107","PAYLOAD","U","21059R","2024-01-31 08:54:42","487776","15.76023128","0.0005541","97.6045","185.4506","291.5433","68.5241","0","999","14470","0.0019166","0.00307354","0","4176118","0 SPACEBEE-107","1 48894U 21059R   24031.37132509  .00307354  00000-0  19166-2 0  9997","2 48894  97.6045 185.4506 0005541 291.5433  68.5241 15.76023128144704","2021-059R","48894","6719.858","91.369","345.447","338.000","1"
"GENERATED VIA SPACETRACK.ORG API","18 SPCS","48894","SPACEBEE-107","PAYLOAD","U","21059R","2024-02-01 09:17:20","26176","15.76585236","0.0005351","97.6035","186.564","290.0297","70.0391","0","999","14486","0.0016957","0.0027769","0","4176625","0 SPACEBEE-107","1 48894U 21059R   24032.38703734  .00277690  00000-0  16957-2 0  9997","2 48894  97.6035 186.5640 0005351 290.0297  70.0391 15.76585236144869","2021-059R","48894","6718.261","91.337","343.721","336.531","1"
"GENERATED VIA SPACETRACK.ORG API","18 SPCS","48894","SPACEBEE-107","PAYLOAD","U","21059R","2024-02-01 09:17:20","26176","15.76585236","0.0005351","97.6035","186.564","290.0297","70.0391","0","999","14486","0.0016957","0.0027769","0","4176807","0 SPACEBEE-107","1 48894U 21059R   24032.38703734  .00277690  00000-0  16957-2 0  9997","2 48894  97.6035 186.5640 0005351 290.0297  70.0391 15.76585236144869","2021-059R","48894","6718.261","91.337","343.721","336.531","1"
"GENERATED VIA SPACETRACK.ORG API","18 SPCS","48894","SPACEBEE-107","PAYLOAD","U","21059R","2024-02-02 09:39:25","225056","15.77188115","0.0005468","97.6039","187.6784","290.7156","69.3523","0","999","14502","0.0017619","0.00296945","0","4177377","0 SPACEBEE-107","1 48894U 21059R   24033.40237529  .00296945  00000-0  17619-2 0  9995","2 48894  97.6039 187.6784 0005468 290.7156  69.3523 15.77188115145027","2021-059R","48894","6716.549","91.302","342.086","334.741","1"
"GENERATED VIA SPACETRACK.ORG API","18 SPCS","48894","SPACEBEE-107","PAYLOAD","U","21059R","2024-02-02 09:39:25","225056","15.77188115","0.0005468","97.6039","187.6784","290.7156","69.3523","0","999","14502","0.0017619","0.00296945","0","4177630","0 SPACEBEE-107","1 48894U 21059R   24033.40237529  .00296945  00000-0  17619-2 0  9995","2 48894  97.6039 187.6784 0005468 290.7156  69.3523 15.77188115145027","2021-059R","48894","6716.549","91.302","342.086","334.741","1"
"GENERATED VIA SPACETRACK.ORG API","18 SPCS","48894","SPACEBEE-107","PAYLOAD","U","21059R","2024-02-02 21:50:15","69696","15.77494454","0.0005602","97.6043","188.2363","291.1328","68.9339","0","999","14510","0.001816","0.00310735","0","4177944","0 SPACEBEE-107","1 48894U 21059R   24033.90989664  .00310735  00000-0  18160-2 0  9990","2 48894  97.6043 188.2363 0005602 291.1328  68.9339 15.77494454145103","2021-059R","48894","6715.679","91.284","341.306","333.782","1"
"GENERATED VIA SPACETRACK.ORG API","18 SPCS","48894","SPACEBEE-107","PAYLOAD","U","21059R","2024-02-03 10:00:56","419488","15.77804128","0.0005429","97.6036","188.7933","289.8916","70.1764","0","999","14518","0.0017709","0.00307044","0","4178351","0 SPACEBEE-107","1 48894U 21059R   24034.41731967  .00307044  00000-0  17709-2 0  9995","2 48894  97.6036 188.7933 0005429 289.8916  70.1764 15.77804128145185","2021-059R","48894","6714.801","91.266","340.311","333.020","1"
"GENERATED VIA SPACETRACK.ORG API","18 SPCS","48894","SPACEBEE-107","PAYLOAD","U","21059R","2024-02-03 10:00:56","419488","15.77804128","0.0005429","97.6036","188.7933","289.8916","70.1764","0","999","14518","0.0017709","0.00307044","0","4178485","0 SPACEBEE-107","1 48894U 21059R   24034.41731967  .00307044  00000-0  17709-2 0  9995","2 48894  97.6036 188.7933 0005429 289.8916  70.1764 15.77804128145185","2021-059R","48894","6714.801","91.266","340.311","333.020","1"
"GENERATED VIA SPACETRACK.ORG API","18 SPCS","48894","SPACEBEE-107","PAYLOAD","U","21059R","2024-02-03 22:11:29","146560","15.7811757","0.0005688","97.6036","189.3516","290.5356","69.5299","0","999","14526","0.0018612","0.00328042","0","4178824","0 SPACEBEE-107","1 48894U 21059R   24034.92464290  .00328042  00000-0  18612-2 0  9998","2 48894  97.6036 189.3516 0005688 290.5356  69.5299 15.78117570145266","2021-059R","48894","6713.911","91.248","339.595","331.958","1"
"GENERATED VIA SPACETRACK.ORG API","18 SPCS","48894","SPACEBEE-107","PAYLOAD","U","21059R","2024-02-03 22:11:29","146560","15.7811757","0.0005688","97.6036","189.3516","290.5356","69.5299","0","999","14526","0.0018612","0.00328042","0","4178953","0 SPACEBEE-107","1 48894U 21059R   24034.92464290  .00328042  00000-0  18612-2 0  9998","2 48894  97.6036 189.3516 0005688 290.5356  69.5299 15.78117570145266","2021-059R","48894","6713.911","91.248","339.595","331.958","1"
"GENERATED VIA SPACETRACK.ORG API","18 SPCS","48894","SPACEBEE-107","PAYLOAD","U","21059R","2024-02-04 08:50:35","249856","15.78420516","0.0005683","97.6032","189.8398","290.6463","69.4193","0","999","14533","0.001958","0.00350708","0","4179229","0 SPACEBEE-107","1 48894U 21059R   24035.36846354  .00350708  00000-0  19580-2 0  9991","2 48894  97.6032 189.8398 0005683 290.6463  69.4193 15.78420516145337","2021-059R","48894","6713.052","91.230","338.732","331.102","1"
"GENERATED VIA SPACETRACK.ORG API","18 SPCS","48894","SPACEBEE-107","PAYLOAD","U","21059R","2024-02-04 08:50:35","249856","15.78420516","0.0005683","97.6032","189.8398","290.6463","69.4193","0","999","14533","0.001958","0.00350708","0","4179372","0 SPACEBEE-107","1 48894U 21059R   24035.36846354  .00350708  00000-0  19580-2 0  9991","2 48894  97.6032 189.8398 0005683 290.6463  69.4193 15.78420516145337","2021-059R","48894","6713.052","91.230","338.732","331.102","1"
